NORAD_CAT_ID,OBJECT_NAME,OBJECT_TYPE,EPOCH,MEAN_MOTION,ECCENTRICITY,INCLINATION,RA_OF_ASC_NODE,ARG_OF_PERICENTER,MEAN_ANOMALY,BSTAR,MEAN_MOTION_DOT,MEAN_MOTION_DDOT,TLE_LINE0,TLE_LINE1,TLE_LINE2,SEMIMAJOR_AXIS,PERIOD,APOGEE,PERIGEE,DECAYED
52360.0,STARLINK-3824,PAYLOAD,2024-03-20 10:07:43,15.08834003,0.0001802,53.2176,178.0304,120.4856,239.6314,-4.6785e-05,-1.032e-05,0.0,0 STARLINK-3824,1 52360U 22045AF  24080.42203215 -.00001032  00000-0 -46785-4 0  9994,2 52360  53.2176 178.0304 0001802 120.4856 239.6314 15.08834003107325,6917.899,95.438,541.01,538.517,0.0
52360.0,STARLINK-3824,PAYLOAD,2024-03-20 13:18:29,15.08834134,0.000166,53.2177,177.4367,114.5734,245.5431,-6.051e-05,-1.251e-05,0.0,0 STARLINK-3824,1 52360U 22045AF  24080.55451344 -.00001251  00000-0 -60510-4 0  9991,2 52360  53.2177 177.4367 0001660 114.5734 245.5431 15.08834134107342,6917.898,95.438,540.912,538.615,0.0
52360.0,STARLINK-3824,PAYLOAD,2024-03-21 13:09:16,15.08852889,0.0001483,53.2173,172.984,98.7325,261.3835,5.8826e-05,6.49e-06,0.0,0 STARLINK-3824,1 52360U 22045AF  24081.54810287  .00000649  00000-0  58826-4 0  9991,2 52360  53.2173 172.9840 0001483  98.7325 261.3835 15.08852889107493,6917.841,95.437,540.732,538.68,0.0
52360.0,STARLINK-3824,PAYLOAD,2024-03-21 16:20:01,15.08859736,0.0001435,53.2163,172.3821,76.3687,283.7465,0.00027639,4.116e-05,0.0,0 STARLINK-3824,1 52360U 22045AF  24081.68057854  .00004116  00000-0  27639-3 0  9999,2 52360  53.2163 172.3821 0001435  76.3687 283.7465 15.08859736107513,6917.82,95.436,540.678,538.692,0.0
52360.0,STARLINK-3824,PAYLOAD,2024-03-22 11:24:41,15.08832394,0.0001596,53.2166,168.8107,109.1177,250.9988,6.0907e-05,6.81e-06,0.0,0 STARLINK-3824,1 52360U 22045AF  24082.47547582  .00000681  00000-0  60907-4 0  9998,2 52360  53.2166 168.8107 0001596 109.1177 250.9988 15.08832394107630,6917.904,95.438,540.873,538.665,0.0
52360.0,STARLINK-3824,PAYLOAD,2024-03-22 14:35:27,15.08843834,0.0001286,53.2172,168.222,79.5076,280.6061,0.00024132,3.555e-05,0.0,0 STARLINK-3824,1 52360U 22045AF  24082.60795245  .00003555  00000-0  24132-3 0  9996,2 52360  53.2172 168.2220 0001286  79.5076 280.6061 15.08843834107656,6917.869,95.437,540.623,538.844,0.0
52360.0,STARLINK-3824,PAYLOAD,2024-03-22 16:10:50,15.08839349,0.0001384,53.2176,167.92,82.984,277.131,0.00017969,2.573e-05,0.0,0 STARLINK-3824,1 52360U 22045AF  24082.67419408  .00002573  00000-0  17969-3 0  9996,2 52360  53.2176 167.9200 0001384  82.9840 277.1310 15.08839349107665,6917.882,95.438,540.705,538.79,0.0
52360.0,STARLINK-3824,PAYLOAD,2024-03-23 12:50:51,15.08844829,0.0001175,53.2166,164.0568,79.9318,280.1807,0.00013847,1.917e-05,0.0,0 STARLINK-3824,1 52360U 22045AF  24083.53531444  .00001917  00000-0  13847-3 0  9999,2 52360  53.2166 164.0568 0001175  79.9318 280.1807 15.08844829107791,6917.866,95.437,540.543,538.918,0.0
52360.0,STARLINK-3824,PAYLOAD,2024-03-23 14:26:14,15.08847149,0.0001094,53.2164,163.7593,99.5089,260.6026,0.00019538,2.824e-05,0.0,0 STARLINK-3824,1 52360U 22045AF  24083.60155265  .00002824  00000-0  19538-3 0  9991,2 52360  53.2164 163.7593 0001094  99.5089 260.6026 15.08847149107802,6917.859,95.437,540.48,538.967,0.0
52360.0,STARLINK-3824,PAYLOAD,2024-03-24 12:41:36,15.08876649,0.0001145,53.2165,159.6009,92.7267,267.3857,0.00068902,0.00010706,0.0,0 STARLINK-3824,1 52360U 22045AF  24084.52889822  .00010706  00000-0  68902-3 0  9993,2 52360  53.2165 159.6009 0001145  92.7267 267.3857 15.08876649107947,6917.768,95.435,540.425,538.841,0.0
52360.0,STARLINK-3824,PAYLOAD,2024-03-24 22:13:56,15.08858057,0.0001472,53.2188,157.8116,95.7067,264.4093,0.0003544,5.36e-05,0.0,0 STARLINK-3824,1 52360U 22045AF  24084.92634574  .00005360  00000-0  35440-3 0  9990,2 52360  53.2188 157.8116 0001472  95.7067 264.4093 15.08858057108006,6917.825,95.436,540.709,538.672,0.0
52360.0,STARLINK-3824,PAYLOAD,2024-03-25 04:35:29,15.08826826,0.0001797,53.2165,156.6281,80.3898,279.7297,-0.00021371,-3.686e-05,0.0,0 STARLINK-3824,1 52360U 22045AF  24085.19131810 -.00003686  00000-0 -21371-3 0  9994,2 52360  53.2165 156.6281 0001797  80.3898 279.7297 15.08826826108041,6917.921,95.438,541.029,538.543,0.0
52360.0,STARLINK-3824,PAYLOAD,2024-03-25 10:57:01,15.08838916,0.000135,53.2161,155.4384,89.5309,270.5838,-0.00012409,-2.262e-05,0.0,0 STARLINK-3824,1 52360U 22045AF  24085.45627278 -.00002262  00000-0 -12409-3 0  9992,2 52360  53.2161 155.4384 0001350  89.5309 270.5838 15.08838916108088,6917.884,95.438,540.683,538.815,0.0
52360.0,STARLINK-3824,PAYLOAD,2024-03-26 04:26:17,15.08827247,0.0001854,53.2164,152.1671,87.8261,272.2943,-0.00024638,-4.206e-05,0.0,0 STARLINK-3824,1 52360U 22045AF  24086.18492531 -.00004206  00000-0 -24638-3 0  9992,2 52360  53.2164 152.1671 0001854  87.8261 272.2943 15.08827247108194,6917.919,95.438,541.067,538.502,0.0
52360.0,STARLINK-3824,PAYLOAD,2024-03-26 10:47:50,15.08821023,0.0001683,53.2164,150.9774,94.6889,265.4295,-0.00019421,-3.376e-05,0.0,0 STARLINK-3824,1 52360U 22045AF  24086.44989107 -.00003376  00000-0 -19421-3 0  9992,2 52360  53.2164 150.9774 0001683  94.6889 265.4295 15.08821023108231,6917.938,95.439,540.968,538.639,0.0
52360.0,STARLINK-3824,PAYLOAD,2024-03-27 10:38:36,15.08855878,0.0002246,53.2168,146.515,107.7893,252.3344,0.0005404,8.327e-05,0.0,0 STARLINK-3824,1 52360U 22045AF  24087.44348347  .00008327  00000-0  54040-3 0  9993,2 52360  53.2168 146.5150 0002246 107.7893 252.3344 15.08855878108382,6917.832,95.437,541.251,538.143,0.0
52360.0,STARLINK-3824,PAYLOAD,2024-03-28 04:07:51,15.0884711,0.0002088,53.2158,143.244,105.1828,254.9395,0.00040071,6.096e-05,0.0,0 STARLINK-3824,1 52360U 22045AF  24088.17212802  .00006096  00000-0  40071-3 0  9990,2 52360  53.2158 143.2440 0002088 105.1828 254.9395 15.08847110108497,6917.859,95.437,541.168,538.279,0.0
52360.0,STARLINK-3824,PAYLOAD,2024-03-28 10:29:24,15.08844814,0.0001714,53.2156,142.0556,92.5104,267.6084,0.00030812,4.62e-05,0.0,0 STARLINK-3824,1 52360U 22045AF  24088.43708873  .00004620  00000-0  30812-3 0  9990,2 52360  53.2156 142.0556 0001714  92.5104 267.6084 15.08844814108530,6917.866,95.437,540.916,538.545,0.0
52360.0,STARLINK-3824,PAYLOAD,2024-03-28 20:01:43,15.08843465,0.0001721,53.2151,140.2713,91.8605,268.2585,0.00015845,2.235e-05,0.0,0 STARLINK-3824,1 52360U 22045AF  24088.83452696  .00002235  00000-0  15845-3 0  9992,2 52360  53.2151 140.2713 0001721  91.8605 268.2585 15.08843465108596,6917.87,95.437,540.925,538.544,0.0
52360.0,STARLINK-3824,PAYLOAD,2024-03-29 10:20:10,15.08851459,0.0001801,53.2159,137.5969,97.2278,262.8919,-4.9089e-05,-1.07e-05,0.0,0 STARLINK-3824,1 52360U 22045AF  24089.43067831 -.00001070  00000-0 -49089-4 0  9998,2 52360  53.2159 137.5969 0001801  97.2278 262.8919 15.08851459108684,6917.845,95.437,540.956,538.464,0.0
52360.0,STARLINK-3824,PAYLOAD,2024-03-29 19:52:29,15.08856882,0.0001897,53.2173,135.813,108.0801,252.0398,-6.2985e-05,-1.291e-05,0.0,0 STARLINK-3824,1 52360U 22045AF  24089.82811593 -.00001291  00000-0 -62985-4 0  9998,2 52360  53.2173 135.8130 0001897 108.0801 252.0398 15.08856882108743,6917.829,95.436,541.006,538.381,0.0
52360.0,STARLINK-3824,PAYLOAD,2024-03-30 11:46:21,15.08842706,0.0001945,53.2182,132.8402,102.9427,257.1782,2.1271e-05,5e-07,0.0,0 STARLINK-3824,1 52360U 22045AF  24090.49052419  .00000050  00000-0  21271-4 0  9990,2 52360  53.2182 132.8402 0001945 102.9427 257.1782 15.08842706108847,6917.872,95.437,541.083,538.392,0.0
52360.0,STARLINK-3824,PAYLOAD,2024-03-30 19:43:17,15.08839199,0.0001938,53.2185,131.3492,87.1068,273.0146,4.4891e-05,4.26e-06,0.0,0 STARLINK-3824,1 52360U 22045AF  24090.82172677  .00000426  00000-0  44891-4 0  9996,2 52360  53.2185 131.3492 0001938  87.1068 273.0146 15.08839199108898,6917.883,95.438,541.089,538.407,0.0
52360.0,STARLINK-3824,PAYLOAD,2024-03-31 02:04:49,15.08836467,0.000186,53.2192,130.16,91.9196,268.201,8.5552e-05,1.074e-05,0.0,0 STARLINK-3824,1 52360U 22045AF  24091.08668766  .00001074  00000-0  85552-4 0  9993,2 52360  53.2192 130.1600 0001860  91.9196 268.2010 15.08836467108939,6917.891,95.438,541.043,538.469,0.0
52360.0,STARLINK-3824,PAYLOAD,2024-03-31 10:01:45,15.08844194,0.0001839,53.2174,128.6754,96.6378,263.4824,5.1754e-05,5.36e-06,0.0,0 STARLINK-3824,1 52360U 22045AF  24091.41788277  .00000536  00000-0  51754-4 0  9999,2 52360  53.2174 128.6754 0001839  96.6378 263.4824 15.08844194108982,6917.868,95.437,541.005,538.46,0.0
52360.0,STARLINK-3824,PAYLOAD,2024-03-31 19:34:03,15.08841559,0.0001759,53.2174,126.89,89.759,270.3604,2.8175e-05,1.6e-06,0.0,0 STARLINK-3824,1 52360U 22045AF  24091.81532389  .00000160  00000-0  28175-4 0  9998,2 52360  53.2174 126.8900 0001759  89.7590 270.3604 15.08841559109048,6917.876,95.437,540.957,538.524,0.0
52360.0,STARLINK-3824,PAYLOAD,2024-04-01 09:52:32,15.08842416,0.0001678,53.2157,124.213,85.7276,274.3907,9.3827e-05,1.206e-05,0.0,0 STARLINK-3824,1 52360U 22045AF  24092.41148215  .00001206  00000-0  93827-4 0  9994,2 52360  53.2157 124.2130 0001678  85.7276 274.3907 15.08842416109136,6917.873,95.437,540.899,538.577,0.0
52360.0,STARLINK-3824,PAYLOAD,2024-04-01 19:24:50,15.08842656,0.000165,53.2159,122.429,94.6611,265.457,9.1083e-05,1.162e-05,0.0,0 STARLINK-3824,1 52360U 22045AF  24092.80892094  .00001162  00000-0  91083-4 0  9991,2 52360  53.2159 122.4290 0001650  94.6611 265.4570 15.08842656109196,6917.872,95.437,540.879,538.596,0.0
52360.0,STARLINK-3824,PAYLOAD,2024-04-02 08:07:56,15.08832176,0.0001654,53.2162,120.0499,90.8699,269.2483,0.00021528,3.139e-05,0.0,0 STARLINK-3824,1 52360U 22045AF  24093.33884591  .00003139  00000-0  21528-3 0  9995,2 52360  53.2162 120.0499 0001654  90.8699 269.2483 15.08832176109273,6917.904,95.438,540.914,538.625,0.0
52360.0,STARLINK-3824,PAYLOAD,2024-04-02 19:15:38,15.08838574,0.0001667,53.2164,117.9681,87.3139,272.8044,7.4852e-06,-1.69e-06,0.0,0 STARLINK-3824,1 52360U 22045AF  24093.80252524 -.00000169  00000-0  74852-5 0  9993,2 52360  53.2164 117.9681 0001667  87.3139 272.8044 15.08838574109346,6917.885,95.438,540.903,538.597,0.0
